start=new Date('2023-05-17T00:00:00.000Z').valueOf();
sats=[{"MEAN_ANOMALY":"274.0855","TLE_LINE2":"2 52562  53.2176  52.9245 0001211  86.0275 274.0855 15.08839592 56424","ARG_OF_PERICENTER":"86.0275","MEAN_MOTION_DDOT":"0.0000000000000","OBJECT_NAME":"STARLINK-3957","COUNTRY_CODE":"US","REF_FRAME":"TEME","MEAN_ELEMENT_THEORY":"SGP4","TIME_SYSTEM":"UTC","CLASSIFICATION_TYPE":"U","DECAY_DATE":null,"RCS_SIZE":"LARGE","ELEMENT_SET_NO":"999","PERIOD":"95.438","GP_ID":"231998995","SEMIMAJOR_AXIS":"6917.882","NORAD_CAT_ID":"52562","INCLINATION":"53.2176","BSTAR":"0.00005252400000","PERIAPSIS":"538.909","TLE_LINE1":"1 52562U 22051AF  23136.92637730  .00000548  00000-0  52524-4 0  9991","EPHEMERIS_TYPE":"0","LAUNCH_DATE":"2022-05-13","CENTER_NAME":"EARTH","ECCENTRICITY":"0.00012110","MEAN_MOTION":"15.08839592","OBJECT_ID":"2022-051AF","APOAPSIS":"540.584","FILE":"3909742","EPOCH":"2023-05-16T22:13:58.998720","MEAN_MOTION_DOT":"0.00000548","OBJECT_TYPE":"PAYLOAD","RA_OF_ASC_NODE":"52.9245","SITE":"AFWTR","REV_AT_EPOCH":"5642"},{"SITE":"AFWTR","REV_AT_EPOCH":"5619","MEAN_MOTION_DOT":"-0.00002413","OBJECT_TYPE":"PAYLOAD","RA_OF_ASC_NODE":"68.5521","APOAPSIS":"540.541","OBJECT_ID":"2022-051AG","FILE":"3909742","EPOCH":"2023-05-16T18:53:15.833184","MEAN_MOTION":"15.08842342","ECCENTRICITY":"0.00011610","LAUNCH_DATE":"2022-05-13","CENTER_NAME":"EARTH","EPHEMERIS_TYPE":"0","PERIAPSIS":"538.935","TLE_LINE1":"1 52563U 22051AG  23136.78698881 -.00002413  00000-0 -13356-3 0  9994","INCLINATION":"53.2164","BSTAR":"-0.00013356000000","NORAD_CAT_ID":"52563","SEMIMAJOR_AXIS":"6917.873","GP_ID":"231999745","PERIOD":"95.437","ELEMENT_SET_NO":"999","DECAY_DATE":null,"RCS_SIZE":"LARGE","CLASSIFICATION_TYPE":"U","TIME_SYSTEM":"UTC","REF_FRAME":"TEME","MEAN_ELEMENT_THEORY":"SGP4","COUNTRY_CODE":"US","OBJECT_NAME":"STARLINK-3942","MEAN_MOTION_DDOT":"0.0000000000000","ARG_OF_PERICENTER":"80.7173","TLE_LINE2":"2 52563  53.2164  68.5521 0001161  80.7173 279.3950 15.08842342 56199","MEAN_ANOMALY":"279.3950"},{"MEAN_MOTION_DDOT":"0.0000000000000","OBJECT_NAME":"STARLINK-3959","COUNTRY_CODE":"US","MEAN_ANOMALY":"269.5484","TLE_LINE2":"2 52564  53.2178  71.5674 0001194  90.5645 269.5484 15.08836789 56097","ARG_OF_PERICENTER":"90.5645","CLASSIFICATION_TYPE":"U","DECAY_DATE":null,"RCS_SIZE":"LARGE","ELEMENT_SET_NO":"999","PERIOD":"95.438","REF_FRAME":"TEME","MEAN_ELEMENT_THEORY":"SGP4","TIME_SYSTEM":"UTC","SEMIMAJOR_AXIS":"6917.890","NORAD_CAT_ID":"52564","INCLINATION":"53.2178","BSTAR":"0.00002771800000","TLE_LINE1":"1 52564U 22051AH  23136.11819579  .00000153  00000-0  27718-4 0  9996","PERIAPSIS":"538.929","GP_ID":"231966020","MEAN_MOTION":"15.08836789","APOAPSIS":"540.581","OBJECT_ID":"2022-051AH","FILE":"3909472","EPOCH":"2023-05-16T02:50:12.116256","MEAN_MOTION_DOT":"0.00000153","OBJECT_TYPE":"PAYLOAD","RA_OF_ASC_NODE":"71.5674","SITE":"AFWTR","REV_AT_EPOCH":"5609","EPHEMERIS_TYPE":"0","CENTER_NAME":"EARTH","LAUNCH_DATE":"2022-05-13","ECCENTRICITY":"0.00011940"},{"SEMIMAJOR_AXIS":"6917.888","NORAD_CAT_ID":"52565","BSTAR":"0.00002702700000","INCLINATION":"53.2170","PERIAPSIS":"538.984","TLE_LINE1":"1 52565U 22051AJ  23136.00269678  .00000142  00000-0  27027-4 0  9995","GP_ID":"231966765","MEAN_MOTION":"15.08837552","EPOCH":"2023-05-16T00:03:53.001792","FILE":"3909472","OBJECT_ID":"2022-051AJ","APOAPSIS":"540.522","OBJECT_TYPE":"PAYLOAD","RA_OF_ASC_NODE":"57.0746","MEAN_MOTION_DOT":"0.00000142","REV_AT_EPOCH":"5628","SITE":"AFWTR","EPHEMERIS_TYPE":"0","LAUNCH_DATE":"2022-05-13","CENTER_NAME":"EARTH","ECCENTRICITY":"0.00011120","MEAN_MOTION_DDOT":"0.0000000000000","OBJECT_NAME":"STARLINK-3911","COUNTRY_CODE":"US","MEAN_ANOMALY":"263.5196","TLE_LINE2":"2 52565  53.2170  57.0746 0001112  96.5923 263.5196 15.08837552 56288","ARG_OF_PERICENTER":"96.5923","CLASSIFICATION_TYPE":"U","RCS_SIZE":"LARGE","DECAY_DATE":null,"ELEMENT_SET_NO":"999","PERIOD":"95.438","MEAN_ELEMENT_THEORY":"SGP4","REF_FRAME":"TEME","TIME_SYSTEM":"UTC"},{"MEAN_ANOMALY":"263.5021","TLE_LINE2":"2 52566  53.2181  68.3861 0001297  96.6119 263.5021 15.08841628 56204","ARG_OF_PERICENTER":"96.6119","MEAN_MOTION_DDOT":"0.0000000000000","OBJECT_NAME":"STARLINK-3938","COUNTRY_CODE":"US","REF_FRAME":"TEME","MEAN_ELEMENT_THEORY":"SGP4","TIME_SYSTEM":"UTC","CLASSIFICATION_TYPE":"U","DECAY_DATE":null,"RCS_SIZE":"LARGE","ELEMENT_SET_NO":"999","PERIOD":"95.437","GP_ID":"231999495","SEMIMAJOR_AXIS":"6917.875","NORAD_CAT_ID":"52566","INCLINATION":"53.2181","BSTAR":"-0.00001470800000","TLE_LINE1":"1 52566U 22051AK  23136.82379556 -.00000522  00000-0 -14708-4 0  9999","PERIAPSIS":"538.843","EPHEMERIS_TYPE":"0","CENTER_NAME":"EARTH","LAUNCH_DATE":"2022-05-13","ECCENTRICITY":"0.00012970","MEAN_MOTION":"15.08841628","APOAPSIS":"540.638","OBJECT_ID":"2022-051AK","EPOCH":"2023-05-16T19:46:15.936384","FILE":"3909742","MEAN_MOTION_DOT":"-0.00000522","OBJECT_TYPE":"PAYLOAD","RA_OF_ASC_NODE":"68.3861","SITE":"AFWTR","REV_AT_EPOCH":"5620"},{"CLASSIFICATION_TYPE":"U","RCS_SIZE":"LARGE","DECAY_DATE":null,"PERIOD":"95.438","ELEMENT_SET_NO":"999","MEAN_ELEMENT_THEORY":"SGP4","REF_FRAME":"TEME","TIME_SYSTEM":"UTC","MEAN_MOTION_DDOT":"0.0000000000000","OBJECT_NAME":"STARLINK-3929","COUNTRY_CODE":"US","MEAN_ANOMALY":"266.4059","TLE_LINE2":"2 52567  53.2177  52.9438 0001250  93.7076 266.4059 15.08835352 56422","ARG_OF_PERICENTER":"93.7076","MEAN_MOTION":"15.08835352","EPOCH":"2023-05-16T22:08:41.000064","FILE":"3909742","OBJECT_ID":"2022-051AL","APOAPSIS":"540.624","OBJECT_TYPE":"PAYLOAD","RA_OF_ASC_NODE":"52.9438","MEAN_MOTION_DOT":"0.00001350","REV_AT_EPOCH":"5642","SITE":"AFWTR","EPHEMERIS_TYPE":"0","LAUNCH_DATE":"2022-05-13","CENTER_NAME":"EARTH","ECCENTRICITY":"0.00012500","SEMIMAJOR_AXIS":"6917.895","NORAD_CAT_ID":"52567","BSTAR":"0.00010288000000","INCLINATION":"53.2177","TLE_LINE1":"1 52567U 22051AL  23136.92269676  .00001350  00000-0  10288-3 0  9998","PERIAPSIS":"538.895","GP_ID":"231999246"},{"COUNTRY_CODE":"US","MEAN_MOTION_DDOT":"0.0000000000000","OBJECT_NAME":"STARLINK-3930","ARG_OF_PERICENTER":"90.6838","MEAN_ANOMALY":"269.4291","TLE_LINE2":"2 52568  53.2164  52.9894 0001197  90.6838 269.4291 15.08844814 56421","PERIOD":"95.437","ELEMENT_SET_NO":"999","CLASSIFICATION_TYPE":"U","DECAY_DATE":null,"RCS_SIZE":"LARGE","REF_FRAME":"TEME","MEAN_ELEMENT_THEORY":"SGP4","TIME_SYSTEM":"UTC","INCLINATION":"53.2164","BSTAR":"0.00003978500000","TLE_LINE1":"1 52568U 22051AM  23136.91164565  .00000345  00000-0  39785-4 0  9996","PERIAPSIS":"538.903","SEMIMAJOR_AXIS":"6917.866","NORAD_CAT_ID":"52568","GP_ID":"231997995","MEAN_MOTION_DOT":"0.00000345","RA_OF_ASC_NODE":"52.9894","OBJECT_TYPE":"PAYLOAD","SITE":"AFWTR","REV_AT_EPOCH":"5642","MEAN_MOTION":"15.08844814","OBJECT_ID":"2022-051AM","APOAPSIS":"540.559","FILE":"3909742","EPOCH":"2023-05-16T21:52:46.184160","CENTER_NAME":"EARTH","LAUNCH_DATE":"2022-05-13","ECCENTRICITY":"0.00011970","EPHEMERIS_TYPE":"0"},{"MEAN_MOTION_DOT":"-0.00000114","OBJECT_TYPE":"PAYLOAD","RA_OF_ASC_NODE":"52.9586","SITE":"AFWTR","REV_AT_EPOCH":"5642","MEAN_MOTION":"15.08842386","APOAPSIS":"540.758","OBJECT_ID":"2022-051AN","EPOCH":"2023-05-16T22:03:22.892544","FILE":"3909742","LAUNCH_DATE":"2022-05-13","CENTER_NAME":"EARTH","ECCENTRICITY":"0.00014740","EPHEMERIS_TYPE":"0","INCLINATION":"53.2183","BSTAR":"0.00001095700000","PERIAPSIS":"538.718","TLE_LINE1":"1 52569U 22051AN  23136.91901496 -.00000114  00000-0  10957-4 0  9994","SEMIMAJOR_AXIS":"6917.873","NORAD_CAT_ID":"52569","GP_ID":"231998245","PERIOD":"95.437","ELEMENT_SET_NO":"999","CLASSIFICATION_TYPE":"U","DECAY_DATE":null,"RCS_SIZE":"LARGE","REF_FRAME":"TEME","MEAN_ELEMENT_THEORY":"SGP4","TIME_SYSTEM":"UTC","COUNTRY_CODE":"US","MEAN_MOTION_DDOT":"0.0000000000000","OBJECT_NAME":"STARLINK-3927","ARG_OF_PERICENTER":"101.4290","MEAN_ANOMALY":"258.6868","TLE_LINE2":"2 52569  53.2183  52.9586 0001474 101.4290 258.6868 15.08842386 56424"},{"BSTAR":"0.00003768900000","INCLINATION":"53.2184","TLE_LINE1":"1 52570U 22051AP  23136.90797382  .00000312  00000-0  37689-4 0  9992","PERIAPSIS":"538.947","SEMIMAJOR_AXIS":"6917.865","NORAD_CAT_ID":"52570","GP_ID":"231998996","OBJECT_TYPE":"PAYLOAD","RA_OF_ASC_NODE":"53.0091","MEAN_MOTION_DOT":"0.00000312","REV_AT_EPOCH":"5642","SITE":"AFWTR","MEAN_MOTION":"15.08845133","FILE":"3909742","EPOCH":"2023-05-16T21:47:28.938048","OBJECT_ID":"2022-051AP","APOAPSIS":"540.513","LAUNCH_DATE":"2022-05-13","CENTER_NAME":"EARTH","ECCENTRICITY":"0.00011320","EPHEMERIS_TYPE":"0","COUNTRY_CODE":"US","MEAN_MOTION_DDOT":"0.0000000000000","OBJECT_NAME":"STARLINK-3924","ARG_OF_PERICENTER":"90.7491","MEAN_ANOMALY":"269.3631","TLE_LINE2":"2 52570  53.2184  53.0091 0001132  90.7491 269.3631 15.08845133 56424","ELEMENT_SET_NO":"999","PERIOD":"95.437","CLASSIFICATION_TYPE":"U","RCS_SIZE":"LARGE","DECAY_DATE":null,"MEAN_ELEMENT_THEORY":"SGP4","REF_FRAME":"TEME","TIME_SYSTEM":"UTC"},{"GP_ID":"231998744","PERIAPSIS":"538.829","TLE_LINE1":"1 52574U 22051AQ  23136.91533456 -.00000594  00000-0 -19212-4 0  9993","BSTAR":"-0.00001921200000","INCLINATION":"53.2190","NORAD_CAT_ID":"52574","SEMIMAJOR_AXIS":"6917.873","ECCENTRICITY":"0.00013130","LAUNCH_DATE":"2022-05-13","CENTER_NAME":"EARTH","EPHEMERIS_TYPE":"0","REV_AT_EPOCH":"5642","SITE":"AFWTR","OBJECT_TYPE":"PAYLOAD","RA_OF_ASC_NODE":"52.9761","MEAN_MOTION_DOT":"-0.00000594","EPOCH":"2023-05-16T21:58:04.905984","FILE":"3909742","APOAPSIS":"540.646","OBJECT_ID":"2022-051AQ","MEAN_MOTION":"15.08842545","ARG_OF_PERICENTER":"100.7528","TLE_LINE2":"2 52574  53.2190  52.9761 0001313 100.7528 259.3612 15.08842545 56423","MEAN_ANOMALY":"259.3612","COUNTRY_CODE":"US","OBJECT_NAME":"STARLINK-3901","MEAN_MOTION_DDOT":"0.0000000000000","TIME_SYSTEM":"UTC","MEAN_ELEMENT_THEORY":"SGP4","REF_FRAME":"TEME","ELEMENT_SET_NO":"999","PERIOD":"95.437","RCS_SIZE":"LARGE","DECAY_DATE":null,"CLASSIFICATION_TYPE":"U"}];
